{
    "links": {
        "self": "http://www.neowsapp.com/rest/v1/neo/54051044?api_key=iIulBulltgU6a56xZRHN4H3l9WmuAYTsLGpBGhQ2"
    },
    "id": "54051044",
    "neo_reference_id": "54051044",
    "name": "(2020 PS2)",
    "designation": "2020 PS2",
    "nasa_jpl_url": "http://ssd.jpl.nasa.gov/sbdb.cgi?sstr=54051044",
    "absolute_magnitude_h": 25.903,
    "estimated_diameter": {
        "kilometers": {
            "estimated_diameter_min": 0.0175369869,
            "estimated_diameter_max": 0.0392138947
        },
        "meters": {
            "estimated_diameter_min": 17.5369868613,
            "estimated_diameter_max": 39.2138947425
        },
        "miles": {
            "estimated_diameter_min": 0.0108969751,
            "estimated_diameter_max": 0.024366377
        },
        "feet": {
            "estimated_diameter_min": 57.5360479742,
            "estimated_diameter_max": 128.6545144269
        }
    },
    "is_potentially_hazardous_asteroid": false,
    "close_approach_data": [
        {
            "close_approach_date": "1969-03-13",
            "close_approach_date_full": "1969-Mar-13 13:11",
            "epoch_date_close_approach": -25354140000,
            "relative_velocity": {
                "kilometers_per_second": "17.8219036369",
                "kilometers_per_hour": "64158.8530928461",
                "miles_per_hour": "39865.8162453854"
            },
            "miss_distance": {
                "astronomical": "0.0321387245",
                "lunar": "12.5019638305",
                "kilometers": "4807884.729716815",
                "miles": "2987481.039709447"
            },
            "orbiting_body": "Earth"
        },
        {
            "close_approach_date": "2020-08-04",
            "close_approach_date_full": "2020-Aug-04 08:15",
            "epoch_date_close_approach": 1596528900000,
            "relative_velocity": {
                "kilometers_per_second": "16.6030034698",
                "kilometers_per_hour": "59770.8124912177",
                "miles_per_hour": "37139.2584615569"
            },
            "miss_distance": {
                "astronomical": "0.0281515292",
                "lunar": "10.9509448588",
                "kilometers": "4211408.805562804",
                "miles": "2616848.0869185352"
            },
            "orbiting_body": "Earth"
        }
    ],
    "orbital_data": {
        "orbit_id": "2",
        "orbit_determination_date": "2020-08-20 07:00:26",
        "first_observation_date": "2020-08-09",
        "last_observation_date": "2020-08-19",
        "data_arc_in_days": 10,
        "observations_used": 13,
        "orbit_uncertainty": "8",
        "minimum_orbit_intersection": ".0204929",
        "jupiter_tisserand_invariant": "3.379",
        "epoch_osculation": "2459076.5",
        "eccentricity": ".6517465637750786",
        "semi_major_axis": "2.165626279149675",
        "inclination": "3.52340981867453",
        "ascending_node_longitude": "156.3114842263189",
        "orbital_period": "1164.05552393135",
        "perihelion_distance": ".7541867932928651",
        "perihelion_argument": "87.04737392934209",
        "aphelion_distance": "3.577065765006484",
        "perihelion_time": "2459021.427787491021",
        "mean_anomaly": "17.03183060913998",
        "mean_motion": ".3092635983412342",
        "equinox": "J2000",
        "orbit_class": {
            "orbit_class_type": "APO",
            "orbit_class_description": "Near-Earth asteroid orbits which cross the Earth’s orbit similar to that of 1862 Apollo",
            "orbit_class_range": "a (semi-major axis) > 1.0 AU; q (perihelion) < 1.017 AU"
        }
    },
    "is_sentry_object": false
}